{"type": "FeatureCollection", "features": [ {"type": "Feature", "properties": {"norad_id": 66661, "name": "SNUGLITE-III", "group": "last-30-days", "lat": 60.15444013717091, "lon": 98.65838858354137, "alt_km": 591.8891744801958, "timestamp": "2025-12-03T13:52:08.347400+00:00", "meta": {"OBJECT_NAME": "SNUGLITE-III", "OBJECT_ID": "2025-274M", "EPOCH": "2025-12-03T02:04:43.927392", "MEAN_MOTION": 14.93017228, "ECCENTRICITY": 0.0013814, "INCLINATION": 97.7382, "RA_OF_ASC_NODE": 264.4662, "ARG_OF_PERICENTER": 317.8272, "MEAN_ANOMALY": 42.1883, "EPHEMERIS_TYPE": 0, "CLASSIFICATION_TYPE": "U", "NORAD_CAT_ID": 66661, "ELEMENT_SET_NO": 999, "REV_AT_EPOCH": 96, "BSTAR": 0.00040937782, "MEAN_MOTION_DOT": 4.208e-05, "MEAN_MOTION_DDOT": 0}, "tle": {"line1": "1 66661U 25274M   25337.08661953  .00004208  00000+0  40938-3 0  9993", "line2": "2 66661  97.7382 264.4662 0013814 317.8272  42.1883 14.93017228   968"}}, "geometry": {"type": "Point", "coordinates": [98.65838858354137, 60.15444013717091]}}, {"type": "Feature", "properties": {"norad_id": 66662, "name": "2025-274N", "group": "last-30-days", "lat": 58.53589195318837, "lon": 97.78885008318044, "alt_km": 592.2470502456317, "timestamp": "2025-12-03T13:52:08.347409+00:00", "meta": {"OBJECT_NAME": "2025-274N", "OBJECT_ID": "2025-274N", "EPOCH": "2025-12-03T06:53:49.377120", "MEAN_MOTION": 14.93079723, "ECCENTRICITY": 0.00141827, "INCLINATION": 97.7383, "RA_OF_ASC_NODE": 264.6643, "ARG_OF_PERICENTER": 316.4523, "MEAN_ANOMALY": 43.5576, "EPHEMERIS_TYPE": 0, "CLASSIFICATION_TYPE": "U", "NORAD_CAT_ID": 66662, "ELEMENT_SET_NO": 999, "REV_AT_EPOCH": 99, "BSTAR": 0.00030192864, "MEAN_MOTION_DOT": 3.094e-05, "MEAN_MOTION_DDOT": 0}, "tle": {"line1": "1 66662U 25274N   25337.28737705  .00003094  00000+0  30193-3 0  9999", "line2": "2 66662  97.7383 264.6643 0014182 316.4523  43.5576 14.93079723   999"}}, "geometry": {"type": "Point", "coordinates": [97.78885008318044, 58.53589195318837]}}, {"type": "Feature", "properties": {"norad_id": 66663, "name": "KSLV-II R/B", "group": "last-30-days", "lat": -46.30541047630158, "lon": 76.82407865823568, "alt_km": 598.6859867879575, "timestamp": "2025-12-03T13:52:08.347420+00:00", "meta": {"OBJECT_NAME": "KSLV-II R/B", "OBJECT_ID": "2025-274P", "EPOCH": "2025-12-02T09:35:20.901408", "MEAN_MOTION": 14.972028, "ECCENTRICITY": 0.00441352, "INCLINATION": 97.7406, "RA_OF_ASC_NODE": 263.8419, "ARG_OF_PERICENTER": 353.0151, "MEAN_ANOMALY": 7.045, "EPHEMERIS_TYPE": 0, "CLASSIFICATION_TYPE": "U", "NORAD_CAT_ID": 66663, "ELEMENT_SET_NO": 999, "REV_AT_EPOCH": 86, "BSTAR": -0.00028812216, "MEAN_MOTION_DOT": -3.459e-05, "MEAN_MOTION_DDOT": 0}, "tle": {"line1": "1 66663U 25274P   25336.39954747 -.00003459  00000+0 -28812-3 0  9990", "line2": "2 66663  97.7406 263.8419 0044135 353.0151   7.0450 14.97202800   863"}}, "geometry": {"type": "Point", "coordinates": [76.82407865823568, -46.30541047630158]}}, {"type": "Feature", "properties": {"norad_id": 66664, "name": "SOYUZ-MS 28", "group": "last-30-days", "lat": 8.815083164182164, "lon": -165.1061445049836, "alt_km": 420.79145206163685, "timestamp": "2025-12-03T13:52:08.347430+00:00", "meta": {"OBJECT_NAME": "SOYUZ-MS 28", "OBJECT_ID": "2025-275A", "EPOCH": "2025-12-03T01:26:08.635488", "MEAN_MOTION": 15.49262423, "ECCENTRICITY": 0.00036204, "INCLINATION": 51.6309, "RA_OF_ASC_NODE": 190.4017, "ARG_OF_PERICENTER": 198.708, "MEAN_ANOMALY": 161.3776, "EPHEMERIS_TYPE": 0, "CLASSIFICATION_TYPE": "U", "NORAD_CAT_ID": 66664, "ELEMENT_SET_NO": 999, "REV_AT_EPOCH": 94, "BSTAR": 0.00021764811, "MEAN_MOTION_DOT": 0.0001167, "MEAN_MOTION_DDOT": 0}, "tle": {"line1": "1 66664U 25275A   25337.05982217  .00011670  00000+0  21765-3 0  9991", "line2": "2 66664  51.6309 190.4017 0003620 198.7080 161.3776 15.49262423   942"}}, "geometry": {"type": "Point", "coordinates": [-165.1061445049836, 8.815083164182164]}}, {"type": "Feature", "properties": {"norad_id": 66820, "name": "KOMPSAT-7", "group": "last-30-days", "lat": -82.07706162811608, "lon": -1.6834806898489596, "alt_km": 573.20548287165, "timestamp": "2025-12-03T13:52:08.347443+00:00", "meta": {"OBJECT_NAME": "KOMPSAT-7", "OBJECT_ID": "2025-279A", "EPOCH": "2025-12-01T20:35:16.060992", "MEAN_MOTION": 14.98310631, "ECCENTRICITY": 0.00097501, "INCLINATION": 97.6394, "RA_OF_ASC_NODE": 281.9587, "ARG_OF_PERICENTER": 255.3935, "MEAN_ANOMALY": 104.6207, "EPHEMERIS_TYPE": 0, "CLASSIFICATION_TYPE": "U", "NORAD_CAT_ID": 66820, "ELEMENT_SET_NO": 999, "REV_AT_EPOCH": 2, "BSTAR": 8.4407298e-05, "MEAN_MOTION_DOT": 9.47e-06, "MEAN_MOTION_DDOT": 0}, "tle": {"line1": "1 66820U 25279A   25335.85782478  .00000947  00000+0  84407-4 0  9990", "line2": "2 66820  97.6394 281.9587 0009750 255.3935 104.6207 14.98310631    23"}}, "geometry": {"type": "Point", "coordinates": [-1.6834806898489596, -82.07706162811608]}}]}